#dP2022  5 19  0  0  0.00000000      97 __u+U IGS14 FIT  IAC
## 2210 345600.00000000   900.00000000 59718 0.0000000000000
+  116   C06C07C08C09C10C11C12C13C14C16C19C20C21C22C23C24C25
+        C26C27C28C29C30C32C33C34C35C36C37C38C39C40C41C42C43
+        C44C45C46E01E02E03E04E05E07E08E09E10E11E12E13E14E15
+        E18E19E21E24E25E26E27E30E31E33E34E36G01G02G03G04G05
+        G06G07G08G09G10G12G13G14G15G16G17G18G19G20G21G22G23
+        G24G25G26G27G28G29G30G31G32J02J03R01R02R03R04R05R07
+        R08R09R11R12R13R14R15R17R18R19R20R21R22R24  0  0  0
++         7  7  7  7  7  7  6  7  7  7  5  5  6  5  6  5  5
++         5  6  6  5  6  6  6  6  5  6  6  7  6  6  6  6  6
++         6  6  6  7  4  4  4  4  4  5  4  5  4  4  5  4  4
++         5  4  4  4  4  4  4  4  4  4  4  4  4  3  3  3  3
++         3  3  3  3  3  4  3  4  4  3  4  6  4  3  3  4  3
++         4  3  4  3  4  3  3  4  4  9  9  6  6  6  6  6  6
++         6  6  6  6  7  6  6  6  6  7  7  6  7  6  0  0  0
%c M  cc GPS ccc cccc cccc cccc cccc ccccc ccccc ccccc ccccc
%c cc cc ccc ccc cccc cccc cccc cccc ccccc ccccc ccccc ccccc
%f  1.2500000  1.025000000  0.00000000000  0.000000000000000
%f  0.0000000  0.000000000  0.00000000000  0.000000000000000
%i    0    0    0    0      0      0      0      0         0
%i    0    0    0    0      0      0      0      0         0
/* INFORMATION & ANALYSIS CENTER (IAC)            FINAL DATA
/* S/V CLOCKS ARE ALIGNED TO GNSS TIME                      
/* G:C1WC2W R:C1PC2P E:C1XC5X C:C2IC6I J:C1CC2S             
/* PCV:IGS14_2196 OL/AL:FES2004  NONE     YN ORB:CoN CLK:CoN
*  2022 05 19 19 15  0.00000000
PC06  -8471.133194  23437.079337  34023.897965     17.238978
PC07 -16174.818852  37923.866466  -9238.891360   -187.667672
PC08   -375.996489  35116.951228 -23229.110778    321.157358
PC09   1057.240305  25279.912519  34144.238187   -802.817762
PC10  -9698.562988  38104.227948 -15614.430428    131.428142
PC11  -2130.904066 -15640.924261  23071.610690    362.273301
PC12  17616.827415 -10290.880339  19062.032272   -613.571868
PC13   5007.251834  38245.368298 -16569.642001    -28.140629
PC14   5109.852255 -23410.526227 -14226.097429    478.726265
PC16 -12012.859102  22055.139432  34013.779272    132.863076
PC19   3449.430891  18823.977833  20350.240658    868.346200
PC20 -11575.061239  24281.529184   7516.591661   -921.725661
PC21  20647.361956 -15386.493517  10743.427278   -321.318925
PC22  17095.683986   2289.314704  21937.166885   -969.178120
PC23 -18331.169378 -13579.072675  16077.933380   -930.298088
PC24   3364.353064 -22294.202720 -16465.100886   -966.578233
PC25 -11963.804787 -25215.813226    611.892344   -734.292303
PC26  14380.623578  -7620.028983 -22679.698374    735.549626
PC27 -24319.670127   5527.748679 -12527.836501    725.738161
PC28 -26754.819131  -6607.062122   4396.265119     68.654210
PC29  13726.210102  14750.178978 -19320.874273    556.868995
PC30  -8091.749454  14769.202396 -22258.920418    498.726072
PC32 -20530.624859  15567.012864 -10719.131927   -963.719903
PC33  -3513.172852 -18836.731225 -20269.065721   -966.044733
PC34   7017.435296 -15034.164178  22425.343569   -399.901234
PC35  26664.846654   6323.995063  -5382.643338    281.519598
PC36  11031.767212  25631.727789    -80.174459   -964.578160
PC37 -15123.408824   5975.096802  22694.491231   -910.584564
PC38  -6708.386198  31068.943723 -27608.772124    233.295874
PC39 -18097.234650  20610.981712  32010.205316     34.981721
PC40 -23429.875733  34441.947314  -7124.475779    270.407740
PC41 -16890.831780  -2673.574850 -21997.089325   -966.216097
PC42  12306.851020 -24173.125514  -6451.284021   -970.863605
PC43 -12926.378961 -15056.842047  19596.560019   -923.156886
PC44  24280.362632  -6292.478171  12252.619899    664.883798
PC45  18279.420624  13317.167499 -16332.486613    761.279138
PC46  -2130.069549  23102.681344  15485.660676   -333.313540
PE01 -11604.132848  23952.472227  12949.480647   -479.685626
PE02  11521.256493 -24080.571955 -12807.968265    300.212956
PE03  19955.013674 -18158.251360 -12155.084832   -559.948690
PE04   -616.549238  18251.511743  23308.813521  -1031.480385
PE05  27948.180947  -7379.006076   6376.194819   -180.108110
PE07 -19574.422627  -7502.441752 -20890.046139   -670.118287
PE08    305.554461 -18033.460278 -23460.253637   -531.898713
PE09  19611.043392   7274.531157  20947.820009   -523.913177
PE10  18142.256464  21101.446308 -10102.842142   -514.071696
PE11  23968.100373  17388.575643     46.110406   3620.469328
PE12   9627.424688  21454.660072 -17998.599691   4605.652019
PE13 -23736.616011 -17663.967647    631.419393    428.779537
PE14 -15268.518693  20698.407933 -19901.441177  -1832.839847
PE15  -9550.329082 -21346.446410  18139.916307    744.667119
PE18   9835.671410 -15014.476705  15031.930154  -1429.767810
PE19 -21817.924646  17260.048277  10123.796193  -4939.977926
PE21 -16808.277444   6275.828162  23540.955423   -735.139563
PE24  12215.962152  17298.767135 -20685.429418   -623.890168
PE25  16820.928780  -5968.530757 -23610.059907   -574.520958
PE26 -23548.384640  -2797.015019 -17715.497951  -1163.562939
PE27 -12762.110883 -16135.061521  21287.636842   -302.516364
PE30   -469.901894 -29069.687927   5586.678048   -523.589262
PE31   1238.198534  28844.090684  -6520.158361   -496.887610
PE33 -10179.111403  12432.804053 -24860.548310   -456.477306
PE34   9978.024335 -12580.552115  24854.747173   -517.873288
PE36  23885.391519   3652.899112  17102.927100   -375.969979
PG01  21645.017360  13159.645548   8263.622633    359.437114
PG02 -11832.814602 -20495.697991  12552.621141   -653.210632
PG03  13745.121293   6212.797375  21760.225486   -250.029340
PG04  23378.222374   2677.107467  12411.958839   -165.693603
PG05  -7145.040332 -20461.424334 -15417.734649    -82.437924
PG06   2554.454858 -16417.638517  20763.156977    309.695141
PG07  18408.928591  -1185.903908 -18881.684992    322.163438
PG08  17215.679472   8033.184405 -18746.506729    -68.674759
PG09  25649.201336  -6354.520560   2767.433210   -335.474149
PG10 -11498.956990  21776.824507  -9408.291801   -420.797884
PG12 -11453.038658 -11407.486939  20829.294676   -217.973671
PG13  -7805.430725 -13726.838721 -21531.984383    314.513575
PG14  13156.568594 -20583.426574 -10315.495119   -108.977386
PG15 -18684.657107  -6496.448723 -18277.116935    -59.971763
PG16   1298.491733  23375.379383 -12363.463330   -502.253841
PG17  18523.974537 -13828.083131  13553.903316    614.615208
PG18 -18273.366675    657.232057 -19311.650829    165.739519
PG19  11867.847500 -14814.492510  18226.723203    159.462426
PG20  -2000.247638 -26091.810338  -5214.235707    514.618737
PG21  20687.323502  17177.743587   -897.366225    161.143827
PG22  -8389.855215  16006.466565  19821.037878    261.785267
PG23 -15009.065929  12768.713486 -17768.728531    -22.924221
PG24 -22296.397751 -14331.106182   3553.048458    238.097176
PG25 -15817.740388   4729.461285  20459.927724    326.765610
PG26  -3914.210980  26090.114293   -764.147867    206.729694
PG27   4419.873948  14402.684317 -22085.259951    205.352807
PG28   9039.614943 -25058.439107  -1065.202313    355.008151
PG29 -26139.664702   3917.943652   2910.121540   -515.351348
PG30  11644.298441 -10583.214888 -21320.996696   -528.496985
PG31   -910.838749  18057.065751  19167.244236   -178.289896
PG32 -15759.628928  15687.280973  14527.560016   -130.868097
PJ02 -28081.176063  26933.096375  21348.677734     -0.186988
PJ03 -29167.552179  16634.322994 -20853.083561     -2.263072
PR01   1012.467093 -14839.003449 -20711.308411      8.890150
PR02 -14469.932633   -162.537326 -20941.497201    518.861460
PR03 -20114.906547  13302.412759  -8182.679446     56.935536
PR04 -14545.152761  18972.662011   8920.704248    142.304358
PR05   -978.551335  14257.732648  21140.159627     93.149555
PR07  20175.535249 -13697.045475   7604.076917     35.298780
PR08  14447.013684 -19041.981457  -8878.653089    -65.215971
PR09  12472.019195  12581.075802 -18369.459226     55.918755
PR11   2074.605937 -20762.642794 -14651.362549     38.594020
PR12  -7256.466681 -24245.110530   3287.097650     18.527267
PR13 -12093.060606 -13821.144962  17687.746187    -22.514713
PR14  -9862.104456   6098.462453  22733.255055     25.639337
PR15  -1962.137914  21271.344262  13963.591008     96.011071
PR17 -21218.309897     42.227297 -14182.658956    527.477253
PR18  -7257.679790   8460.529244 -22929.773864    117.396618
PR19   8944.089954  12698.111311 -20240.773168   -189.579568
PR20  23260.717414   9933.395629  -3487.969324    -70.881488
PR21  20310.681183   -732.820237  15393.214906   -302.561996
PR22   6574.246973  -8657.390159  23063.176460   -184.183363
PR24 -23657.565119  -9143.568495   2779.090938     94.524379
EOF
